{"type": "FeatureCollection", "features": [ {"type": "Feature", "properties": {"norad_id": 29843, "name": "FENGYUN 1C DEB", "group": "fengyun-1c-debris", "lat": 44.28138602670335, "lon": -178.66291464403298, "alt_km": 877.4194942765644, "timestamp": "2025-12-17T17:50:19.522388+00:00", "meta": {"OBJECT_NAME": "FENGYUN 1C DEB", "OBJECT_ID": "1999-025EM", "EPOCH": "2025-12-17T03:04:56.791776", "MEAN_MOTION": 14.28567636, "ECCENTRICITY": 0.0191667, "INCLINATION": 99.037, "RA_OF_ASC_NODE": 189.6289, "ARG_OF_PERICENTER": 277.9724, "MEAN_ANOMALY": 205.0882, "EPHEMERIS_TYPE": 0, "CLASSIFICATION_TYPE": "U", "NORAD_CAT_ID": 29843, "ELEMENT_SET_NO": 999, "REV_AT_EPOCH": 98344, "BSTAR": 0.00017106644, "MEAN_MOTION_DOT": 4.68e-06, "MEAN_MOTION_DDOT": 0}, "tle": {"line1": "1 29843U 99025EM  25351.12843509  .00000468  00000+0  17107-3 0  9995", "line2": "2 29843  99.0370 189.6289 0191667 277.9724 205.0882 14.28567636983448"}}, "geometry": {"type": "Point", "coordinates": [-178.66291464403298, 44.28138602670335]}}, {"type": "Feature", "properties": {"norad_id": 29844, "name": "FENGYUN 1C DEB", "group": "fengyun-1c-debris", "lat": 32.002383007912734, "lon": 78.88045872898354, "alt_km": 663.035160480893, "timestamp": "2025-12-17T17:50:19.522398+00:00", "meta": {"OBJECT_NAME": "FENGYUN 1C DEB", "OBJECT_ID": "1999-025EN", "EPOCH": "2025-12-17T07:05:38.639904", "MEAN_MOTION": 14.3199436, "ECCENTRICITY": 0.01682943, "INCLINATION": 98.9369, "RA_OF_ASC_NODE": 252.7759, "ARG_OF_PERICENTER": 153.7727, "MEAN_ANOMALY": 207.2101, "EPHEMERIS_TYPE": 0, "CLASSIFICATION_TYPE": "U", "NORAD_CAT_ID": 29844, "ELEMENT_SET_NO": 999, "REV_AT_EPOCH": 98406, "BSTAR": 0.000327073, "MEAN_MOTION_DOT": 9.76e-06, "MEAN_MOTION_DDOT": 0}, "tle": {"line1": "1 29844U 99025EN  25351.29558611  .00000976  00000+0  32707-3 0  9998", "line2": "2 29844  98.9369 252.7759 0168294 153.7727 207.2101 14.31994360984062"}}, "geometry": {"type": "Point", "coordinates": [78.88045872898354, 32.002383007912734]}}, {"type": "Feature", "properties": {"norad_id": 29845, "name": "FENGYUN 1C DEB", "group": "fengyun-1c-debris", "lat": -59.1276676065024, "lon": 6.479090146158469, "alt_km": 866.5284287216655, "timestamp": "2025-12-17T17:50:19.522409+00:00", "meta": {"OBJECT_NAME": "FENGYUN 1C DEB", "OBJECT_ID": "1999-025EP", "EPOCH": "2025-12-17T06:23:22.032672", "MEAN_MOTION": 14.2649584, "ECCENTRICITY": 0.00780363, "INCLINATION": 98.5218, "RA_OF_ASC_NODE": 351.4899, "ARG_OF_PERICENTER": 118.0753, "MEAN_ANOMALY": 253.3599, "EPHEMERIS_TYPE": 0, "CLASSIFICATION_TYPE": "U", "NORAD_CAT_ID": 29845, "ELEMENT_SET_NO": 999, "REV_AT_EPOCH": 98174, "BSTAR": 0.00048372646, "MEAN_MOTION_DOT": 1.162e-05, "MEAN_MOTION_DDOT": 0}, "tle": {"line1": "1 29845U 99025EP  25351.26622723  .00001162  00000+0  48373-3 0  9996", "line2": "2 29845  98.5218 351.4899 0078036 118.0753 253.3599 14.26495840981749"}}, "geometry": {"type": "Point", "coordinates": [6.479090146158469, -59.1276676065024]}}, {"type": "Feature", "properties": {"norad_id": 29846, "name": "FENGYUN 1C DEB", "group": "fengyun-1c-debris", "lat": -16.42918830626714, "lon": -149.12842743318018, "alt_km": 836.102676565075, "timestamp": "2025-12-17T17:50:19.522418+00:00", "meta": {"OBJECT_NAME": "FENGYUN 1C DEB", "OBJECT_ID": "1999-025EQ", "EPOCH": "2025-12-17T01:48:58.491936", "MEAN_MOTION": 14.19094911, "ECCENTRICITY": 0.00837939, "INCLINATION": 98.6546, "RA_OF_ASC_NODE": 32.7937, "ARG_OF_PERICENTER": 291.6634, "MEAN_ANOMALY": 97.1078, "EPHEMERIS_TYPE": 0, "CLASSIFICATION_TYPE": "U", "NORAD_CAT_ID": 29846, "ELEMENT_SET_NO": 999, "REV_AT_EPOCH": 97921, "BSTAR": 0.00013221166, "MEAN_MOTION_DOT": 2.42e-06, "MEAN_MOTION_DDOT": 0}, "tle": {"line1": "1 29846U 99025EQ  25351.07567699  .00000242  00000+0  13221-3 0  9998", "line2": "2 29846  98.6546  32.7937 0083793 291.6634  97.1078 14.19094911979210"}}, "geometry": {"type": "Point", "coordinates": [-149.12842743318018, -16.42918830626714]}}, {"type": "Feature", "properties": {"norad_id": 29847, "name": "FENGYUN 1C DEB", "group": "fengyun-1c-debris", "lat": 24.838273929589388, "lon": 171.70375146448316, "alt_km": 921.7927304431541, "timestamp": "2025-12-17T17:50:19.522429+00:00", "meta": {"OBJECT_NAME": "FENGYUN 1C DEB", "OBJECT_ID": "1999-025ER", "EPOCH": "2025-12-17T05:24:49.154688", "MEAN_MOTION": 14.03002903, "ECCENTRICITY": 0.00849966, "INCLINATION": 98.9028, "RA_OF_ASC_NODE": 347.0368, "ARG_OF_PERICENTER": 26.4172, "MEAN_ANOMALY": 34.1409, "EPHEMERIS_TYPE": 0, "CLASSIFICATION_TYPE": "U", "NORAD_CAT_ID": 29847, "ELEMENT_SET_NO": 999, "REV_AT_EPOCH": 96798, "BSTAR": 0.00037303776, "MEAN_MOTION_DOT": 5.55e-06, "MEAN_MOTION_DDOT": 0}, "tle": {"line1": "1 29847U 99025ER  25351.22556892  .00000555  00000+0  37304-3 0  9994", "line2": "2 29847  98.9028 347.0368 0084996  26.4172  34.1409 14.03002903967989"}}, "geometry": {"type": "Point", "coordinates": [171.70375146448316, 24.838273929589388]}}, {"type": "Feature", "properties": {"norad_id": 29848, "name": "FENGYUN 1C DEB", "group": "fengyun-1c-debris", "lat": -80.3990980057112, "lon": -82.94296691969065, "alt_km": 746.9861883427948, "timestamp": "2025-12-17T17:50:19.522438+00:00", "meta": {"OBJECT_NAME": "FENGYUN 1C DEB", "OBJECT_ID": "1999-025ES", "EPOCH": "2025-12-17T05:16:13.300032", "MEAN_MOTION": 14.20594462, "ECCENTRICITY": 0.01167601, "INCLINATION": 98.2489, "RA_OF_ASC_NODE": 217.5201, "ARG_OF_PERICENTER": 282.1748, "MEAN_ANOMALY": 196.2285, "EPHEMERIS_TYPE": 0, "CLASSIFICATION_TYPE": "U", "NORAD_CAT_ID": 29848, "ELEMENT_SET_NO": 999, "REV_AT_EPOCH": 97181, "BSTAR": 0.00099159624, "MEAN_MOTION_DOT": 2.244e-05, "MEAN_MOTION_DDOT": 0}, "tle": {"line1": "1 29848U 99025ES  25351.21959838  .00002244  00000+0  99160-3 0  9996", "line2": "2 29848  98.2489 217.5201 0116760 282.1748 196.2285 14.20594462971810"}}, "geometry": {"type": "Point", "coordinates": [-82.94296691969065, -80.3990980057112]}}, {"type": "Feature", "properties": {"norad_id": 29849, "name": "FENGYUN 1C DEB", "group": "fengyun-1c-debris", "lat": -19.607658367356215, "lon": -107.1563913619635, "alt_km": 939.1788215299157, "timestamp": "2025-12-17T17:50:19.522449+00:00", "meta": {"OBJECT_NAME": "FENGYUN 1C DEB", "OBJECT_ID": "1999-025ET", "EPOCH": "2025-12-17T05:11:09.282624", "MEAN_MOTION": 14.04904296, "ECCENTRICITY": 0.00803875, "INCLINATION": 99.0114, "RA_OF_ASC_NODE": 75.5608, "ARG_OF_PERICENTER": 32.094, "MEAN_ANOMALY": 22.5429, "EPHEMERIS_TYPE": 0, "CLASSIFICATION_TYPE": "U", "NORAD_CAT_ID": 29849, "ELEMENT_SET_NO": 999, "REV_AT_EPOCH": 96433, "BSTAR": 0.00069638227, "MEAN_MOTION_DOT": 1.108e-05, "MEAN_MOTION_DDOT": 0}, "tle": {"line1": "1 29849U 99025ET  25351.21607966  .00001108  00000+0  69638-3 0  9994", "line2": "2 29849  99.0114  75.5608 0080387  32.0940  22.5429 14.04904296964331"}}, "geometry": {"type": "Point", "coordinates": [-107.1563913619635, -19.607658367356215]}}, {"type": "Feature", "properties": {"norad_id": 29850, "name": "FENGYUN 1C DEB", "group": "fengyun-1c-debris", "lat": 48.574740452871595, "lon": -91.48901308061834, "alt_km": 940.7771435892164, "timestamp": "2025-12-17T17:50:19.522460+00:00", "meta": {"OBJECT_NAME": "FENGYUN 1C DEB", "OBJECT_ID": "1999-025EU", "EPOCH": "2025-12-17T07:55:02.014752", "MEAN_MOTION": 13.99876457, "ECCENTRICITY": 0.01020817, "INCLINATION": 98.1242, "RA_OF_ASC_NODE": 277.4596, "ARG_OF_PERICENTER": 276.7116, "MEAN_ANOMALY": 209.5803, "EPHEMERIS_TYPE": 0, "CLASSIFICATION_TYPE": "U", "NORAD_CAT_ID": 29850, "ELEMENT_SET_NO": 999, "REV_AT_EPOCH": 96084, "BSTAR": 0.0010261308, "MEAN_MOTION_DOT": 1.538e-05, "MEAN_MOTION_DDOT": 0}, "tle": {"line1": "1 29850U 99025EU  25351.32988443  .00001538  00000+0  10261-2 0  9994", "line2": "2 29850  98.1242 277.4596 0102081 276.7116 209.5803 13.99876457960847"}}, "geometry": {"type": "Point", "coordinates": [-91.48901308061834, 48.574740452871595]}}, {"type": "Feature", "properties": {"norad_id": 29851, "name": "FENGYUN 1C DEB", "group": "fengyun-1c-debris", "lat": 61.33965342345598, "lon": 14.756839468613899, "alt_km": 1036.2768550887777, "timestamp": "2025-12-17T17:50:19.522470+00:00", "meta": {"OBJECT_NAME": "FENGYUN 1C DEB", "OBJECT_ID": "1999-025EV", "EPOCH": "2025-12-17T02:10:43.735872", "MEAN_MOTION": 13.83602791, "ECCENTRICITY": 0.01422392, "INCLINATION": 99.5838, "RA_OF_ASC_NODE": 32.0972, "ARG_OF_PERICENTER": 216.0073, "MEAN_ANOMALY": 199.3415, "EPHEMERIS_TYPE": 0, "CLASSIFICATION_TYPE": "U", "NORAD_CAT_ID": 29851, "ELEMENT_SET_NO": 999, "REV_AT_EPOCH": 95427, "BSTAR": 0.00034271394, "MEAN_MOTION_DOT": 3.62e-06, "MEAN_MOTION_DDOT": 0}, "tle": {"line1": "1 29851U 99025EV  25351.09078398  .00000362  00000+0  34271-3 0  9990", "line2": "2 29851  99.5838  32.0972 0142239 216.0073 199.3415 13.83602791954271"}}, "geometry": {"type": "Point", "coordinates": [14.756839468613899, 61.33965342345598]}}, {"type": "Feature", "properties": {"norad_id": 29852, "name": "FENGYUN 1C DEB", "group": "fengyun-1c-debris", "lat": -41.17085020478255, "lon": 10.014802303377255, "alt_km": 973.7033202192324, "timestamp": "2025-12-17T17:50:19.522481+00:00", "meta": {"OBJECT_NAME": "FENGYUN 1C DEB", "OBJECT_ID": "1999-025EW", "EPOCH": "2025-12-16T23:34:32.085120", "MEAN_MOTION": 14.07092338, "ECCENTRICITY": 0.01351334, "INCLINATION": 99.371, "RA_OF_ASC_NODE": 0.9229, "ARG_OF_PERICENTER": 138.334, "MEAN_ANOMALY": 287.3608, "EPHEMERIS_TYPE": 0, "CLASSIFICATION_TYPE": "U", "NORAD_CAT_ID": 29852, "ELEMENT_SET_NO": 999, "REV_AT_EPOCH": 96044, "BSTAR": 0.0015430769, "MEAN_MOTION_DOT": 2.758e-05, "MEAN_MOTION_DDOT": 0}, "tle": {"line1": "1 29852U 99025EW  25350.98231580  .00002758  00000+0  15431-2 0  9999", "line2": "2 29852  99.3710   0.9229 0135133 138.3340 287.3608 14.07092338960441"}}, "geometry": {"type": "Point", "coordinates": [10.014802303377255, -41.17085020478255]}}]}